GLOBALSTAR M075 [+]     
1 37192U 10054E   23359.37643795 -.00000078  00000+0  14496-3 0  9990
2 37192  51.9968  25.1450 0000429 127.8185 337.2758 12.62268489607833
GLOBALSTAR M073 [+]     
1 37193U 10054F   23359.22677924 -.00000088  00000+0  89750-4 0  9993
2 37193  52.0077 299.0044 0000594  50.2509  96.4830 12.62270599609641
GLOBALSTAR M083 [+]     
1 37739U 11033A   23359.16473748 -.00000073  00000+0  17379-3 0  9999
2 37739  51.9854 248.6633 0001113  77.4505  87.5591 12.62264236578659
GLOBALSTAR M088 [+]     
1 37740U 11033B   23359.84708642 -.00000108  00000+0 -22133-4 0  9995
2 37740  51.9717 152.5277 0001273 109.8263  37.7159 12.62269095574576
GLOBALSTAR M091 [+]     
1 37741U 11033C   23359.52899719 -.00000115  00000+0 -62571-4 0  9995
2 37741  51.9996 116.0885 0001107 113.7043 326.8173 12.62269879575032
GLOBALSTAR M085 [+]     
1 37742U 11033D   23359.52117969 -.00000098  00000+0  34924-4 0  9996
2 37742  51.9881  67.6291 0000798 125.7043 339.3035 12.62266000575541
GLOBALSTAR M081 [+]     
1 37743U 11033E   23359.54846322 -.00000094  00000+0  56871-4 0  9992
2 37743  51.9970  69.9996 0000832 141.1567 328.0785 12.62267739575693
GLOBALSTAR M089 [+]     
1 37744U 11033F   23359.52092641 -.00000072  00000+0  17902-3 0  9995
2 37744  51.9954  24.4131 0000166 163.0960   1.3870 12.62270474576533
